[{"OBJECT_NAME":"OBJECT A","OBJECT_ID":"2024-203A","EPOCH":"2026-03-09T23:31:20.812800","MEAN_MOTION":15.27300571,"ECCENTRICITY":0.00108989,"INCLINATION":97.4288,"RA_OF_ASC_NODE":139.5608,"ARG_OF_PERICENTER":322.6893,"MEAN_ANOMALY":37.3588,"EPHEMERIS_TYPE":0,"CLASSIFICATION_TYPE":"U","NORAD_CAT_ID":61869,"ELEMENT_SET_NO":999,"REV_AT_EPOCH":7380,"BSTAR":0.00061472876,"MEAN_MOTION_DOT":0.00016411,"MEAN_MOTION_DDOT":0},{"OBJECT_NAME":"STARLINK-35463","OBJECT_ID":"2025-262H","EPOCH":"2026-03-09T00:34:29.402688","MEAN_MOTION":15.27593978,"ECCENTRICITY":0.00018439,"INCLINATION":43.0054,"RA_OF_ASC_NODE":300.0113,"ARG_OF_PERICENTER":257.2527,"MEAN_ANOMALY":102.8119,"EPHEMERIS_TYPE":0,"CLASSIFICATION_TYPE":"U","NORAD_CAT_ID":66463,"ELEMENT_SET_NO":999,"REV_AT_EPOCH":1880,"BSTAR":0.0013035426,"MEAN_MOTION_DOT":0.00035798,"MEAN_MOTION_DDOT":0}]
